{
 "generated_at": "2026-07-18T07:00:39Z",
 "sources": [
  {
   "name": "CelesTrak",
   "url": "https://celestrak.org/NORAD/elements/",
   "license": "frei verfügbar; Attribution. Ursprünglich USSPACECOM/Space-Track."
  },
  {
   "name": "GCAT (J. McDowell, planet4589.org)",
   "url": "https://planet4589.org/space/gcat/",
   "license": "CC-BY 4.0"
  }
 ],
 "satellites": [
  {
   "norad": 58648,
   "name": "TIANMU-1 14",
   "intl": "2023-205D",
   "group": "weather",
   "gcat": {
    "class": "B",
    "category": "MET",
    "owner": "TIANMU",
    "state": "CN"
   },
   "omm": {
    "OBJECT_NAME": "TIANMU-1 14",
    "OBJECT_ID": "2023-205D",
    "EPOCH": "2026-07-17T21:44:07.173312",
    "MEAN_MOTION": 15.27148317,
    "ECCENTRICITY": 0.00067032,
    "INCLINATION": 97.3394,
    "RA_OF_ASC_NODE": 219.17,
    "ARG_OF_PERICENTER": 209.0124,
    "MEAN_ANOMALY": 151.0743,
    "EPHEMERIS_TYPE": 0,
    "CLASSIFICATION_TYPE": "U",
    "NORAD_CAT_ID": 58648,
    "ELEMENT_SET_NO": 999,
    "REV_AT_EPOCH": 14219,
    "BSTAR": 0.00011441799,
    "MEAN_MOTION_DOT": 0.00002974,
    "MEAN_MOTION_DDOT": 0
   }
  },
  {
   "norad": 58700,
   "name": "TIANMU-1 15",
   "intl": "2024-004A",
   "group": "weather",
   "gcat": {
    "class": "B",
    "category": "MET",
    "owner": "TIANMU",
    "state": "CN"
   },
   "omm": {
    "OBJECT_NAME": "TIANMU-1 15",
    "OBJECT_ID": "2024-004A",
    "EPOCH": "2026-07-17T23:09:52.188768",
    "MEAN_MOTION": 15.2693045,
    "ECCENTRICITY": 0.00062717,
    "INCLINATION": 97.4671,
    "RA_OF_ASC_NODE": 25.156,
    "ARG_OF_PERICENTER": 216.9715,
    "MEAN_ANOMALY": 143.1092,
    "EPHEMERIS_TYPE": 0,
    "CLASSIFICATION_TYPE": "U",
    "NORAD_CAT_ID": 58700,
    "ELEMENT_SET_NO": 999,
    "REV_AT_EPOCH": 14047,
    "BSTAR": 0.00011390597,
    "MEAN_MOTION_DOT": 0.00002938,
    "MEAN_MOTION_DDOT": 0
   }
  },
  {
   "norad": 58701,
   "name": "TIANMU-1 16",
   "intl": "2024-004B",
   "group": "weather",
   "gcat": {
    "class": "B",
    "category": "MET",
    "owner": "TIANMU",
    "state": "CN"
   },
   "omm": {
    "OBJECT_NAME": "TIANMU-1 16",
    "OBJECT_ID": "2024-004B",
    "EPOCH": "2026-07-17T22:54:25.869312",
    "MEAN_MOTION": 15.2703353,
    "ECCENTRICITY": 0.00046171,
    "INCLINATION": 97.462,
    "RA_OF_ASC_NODE": 24.3603,
    "ARG_OF_PERICENTER": 232.706,
    "MEAN_ANOMALY": 127.3759,
    "EPHEMERIS_TYPE": 0,
    "CLASSIFICATION_TYPE": "U",
    "NORAD_CAT_ID": 58701,
    "ELEMENT_SET_NO": 999,
    "REV_AT_EPOCH": 14047,
    "BSTAR": 0.00010841925,
    "MEAN_MOTION_DOT": 0.00002801,
    "MEAN_MOTION_DDOT": 0
   }
  },
  {
   "norad": 58702,
   "name": "TIANMU-1 17",
   "intl": "2024-004C",
   "group": "weather",
   "gcat": {
    "class": "B",
    "category": "MET",
    "owner": "TIANMU",
    "state": "CN"
   },
   "omm": {
    "OBJECT_NAME": "TIANMU-1 17",
    "OBJECT_ID": "2024-004C",
    "EPOCH": "2026-07-17T22:33:31.870080",
    "MEAN_MOTION": 15.27031256,
    "ECCENTRICITY": 0.00040521,
    "INCLINATION": 97.4647,
    "RA_OF_ASC_NODE": 24.842,
    "ARG_OF_PERICENTER": 238.7841,
    "MEAN_ANOMALY": 121.3001,
    "EPHEMERIS_TYPE": 0,
    "CLASSIFICATION_TYPE": "U",
    "NORAD_CAT_ID": 58702,
    "ELEMENT_SET_NO": 999,
    "REV_AT_EPOCH": 14046,
    "BSTAR": 0.00010966237,
    "MEAN_MOTION_DOT": 0.00002834,
    "MEAN_MOTION_DDOT": 0
   }
  },
  {
   "norad": 58703,
   "name": "TIANMU-1 18",
   "intl": "2024-004D",
   "group": "weather",
   "gcat": {
    "class": "B",
    "category": "MET",
    "owner": "TIANMU",
    "state": "CN"
   },
   "omm": {
    "OBJECT_NAME": "TIANMU-1 18",
    "OBJECT_ID": "2024-004D",
    "EPOCH": "2026-07-17T23:33:41.090112",
    "MEAN_MOTION": 15.26946336,
    "ECCENTRICITY": 0.00039916,
    "INCLINATION": 97.4664,
    "RA_OF_ASC_NODE": 25.1467,
    "ARG_OF_PERICENTER": 212.3877,
    "MEAN_ANOMALY": 147.7117,
    "EPHEMERIS_TYPE": 0,
    "CLASSIFICATION_TYPE": "U",
    "NORAD_CAT_ID": 58703,
    "ELEMENT_SET_NO": 999,
    "REV_AT_EPOCH": 14047,
    "BSTAR": 0.00011143176,
    "MEAN_MOTION_DOT": 0.00002873,
    "MEAN_MOTION_DDOT": 0
   }
  },
  {
   "norad": 58660,
   "name": "TIANMU-1 19",
   "intl": "2023-208A",
   "group": "weather",
   "gcat": {
    "class": "B",
    "category": "MET",
    "owner": "TIANMU",
    "state": "CN"
   },
   "omm": {
    "OBJECT_NAME": "TIANMU-1 19",
    "OBJECT_ID": "2023-208A",
    "EPOCH": "2026-07-17T22:10:56.669664",
    "MEAN_MOTION": 15.32000728,
    "ECCENTRICITY": 0.00048735,
    "INCLINATION": 97.453,
    "RA_OF_ASC_NODE": 315.3944,
    "ARG_OF_PERICENTER": 188.2495,
    "MEAN_ANOMALY": 171.8668,
    "EPHEMERIS_TYPE": 0,
    "CLASSIFICATION_TYPE": "U",
    "NORAD_CAT_ID": 58660,
    "ELEMENT_SET_NO": 999,
    "REV_AT_EPOCH": 14203,
    "BSTAR": 0.00014939513,
    "MEAN_MOTION_DOT": 0.00004537,
    "MEAN_MOTION_DDOT": 0
   }
  },
  {
   "norad": 58661,
   "name": "TIANMU-1 20",
   "intl": "2023-208B",
   "group": "weather",
   "gcat": {
    "class": "B",
    "category": "MET",
    "owner": "TIANMU",
    "state": "CN"
   },
   "omm": {
    "OBJECT_NAME": "TIANMU-1 20",
    "OBJECT_ID": "2023-208B",
    "EPOCH": "2026-07-17T22:31:02.810208",
    "MEAN_MOTION": 15.33189837,
    "ECCENTRICITY": 0.00066028,
    "INCLINATION": 97.4473,
    "RA_OF_ASC_NODE": 316.0758,
    "ARG_OF_PERICENTER": 201.5683,
    "MEAN_ANOMALY": 158.5282,
    "EPHEMERIS_TYPE": 0,
    "CLASSIFICATION_TYPE": "U",
    "NORAD_CAT_ID": 58661,
    "ELEMENT_SET_NO": 999,
    "REV_AT_EPOCH": 14213,
    "BSTAR": 0.00014266134,
    "MEAN_MOTION_DOT": 0.00004496,
    "MEAN_MOTION_DDOT": 0
   }
  },
  {
   "norad": 58662,
   "name": "TIANMU-1 21",
   "intl": "2023-208C",
   "group": "weather",
   "gcat": {
    "class": "B",
    "category": "MET",
    "owner": "TIANMU",
    "state": "CN"
   },
   "omm": {
    "OBJECT_NAME": "TIANMU-1 21",
    "OBJECT_ID": "2023-208C",
    "EPOCH": "2026-07-17T22:40:16.125312",
    "MEAN_MOTION": 15.35582819,
    "ECCENTRICITY": 0.00069588,
    "INCLINATION": 97.4534,
    "RA_OF_ASC_NODE": 318.8981,
    "ARG_OF_PERICENTER": 194.1072,
    "MEAN_ANOMALY": 165.9978,
    "EPHEMERIS_TYPE": 0,
    "CLASSIFICATION_TYPE": "U",
    "NORAD_CAT_ID": 58662,
    "ELEMENT_SET_NO": 999,
    "REV_AT_EPOCH": 14228,
    "BSTAR": 0.00016480201,
    "MEAN_MOTION_DOT": 0.00005621,
    "MEAN_MOTION_DDOT": 0
   }
  },
  {
   "norad": 58663,
   "name": "TIANMU-1 22",
   "intl": "2023-208D",
   "group": "weather",
   "gcat": {
    "class": "B",
    "category": "MET",
    "owner": "TIANMU",
    "state": "CN"
   },
   "omm": {
    "OBJECT_NAME": "TIANMU-1 22",
    "OBJECT_ID": "2023-208D",
    "EPOCH": "2026-07-17T22:00:09.252000",
    "MEAN_MOTION": 15.3144984,
    "ECCENTRICITY": 0.00030033,
    "INCLINATION": 97.4526,
    "RA_OF_ASC_NODE": 315.2962,
    "ARG_OF_PERICENTER": 206.4085,
    "MEAN_ANOMALY": 153.7004,
    "EPHEMERIS_TYPE": 0,
    "CLASSIFICATION_TYPE": "U",
    "NORAD_CAT_ID": 58663,
    "ELEMENT_SET_NO": 999,
    "REV_AT_EPOCH": 14203,
    "BSTAR": 0.00013878652,
    "MEAN_MOTION_DOT": 0.00004136,
    "MEAN_MOTION_DDOT": 0
   }
  },
  {
   "norad": 58297,
   "name": "UMBRA-07",
   "intl": "2023-174AT",
   "group": "sar",
   "gcat": {
    "class": "B",
    "category": "IMG-R",
    "owner": "UMBRA",
    "state": "US"
   },
   "omm": {
    "OBJECT_NAME": "UMBRA-07",
    "OBJECT_ID": "2023-174AT",
    "EPOCH": "2026-07-17T14:24:40.837824",
    "MEAN_MOTION": 15.09642765,
    "ECCENTRICITY": 0.0002018,
    "INCLINATION": 97.3772,
    "RA_OF_ASC_NODE": 253.2193,
    "ARG_OF_PERICENTER": 12.6313,
    "MEAN_ANOMALY": 347.4966,
    "EPHEMERIS_TYPE": 0,
    "CLASSIFICATION_TYPE": "U",
    "NORAD_CAT_ID": 58297,
    "ELEMENT_SET_NO": 999,
    "REV_AT_EPOCH": 14800,
    "BSTAR": 0.00025528,
    "MEAN_MOTION_DOT": 0.00004046,
    "MEAN_MOTION_DDOT": 0
   }
  }
 ]
}
